STARLINK-31919          
1 59880U 24098Y   26023.75575557  .00006093  00000+0  23063-3 0  9996
2 59880  42.9979 171.7946 0002175 307.0666  52.9986 15.27598523 94975
STARLINK-31974          
1 59885U 24100A   26023.68248602  .00004249  00000+0  16387-3 0  9997
2 59885  42.9999  19.5747 0001065 283.3726  76.7007 15.27574119 94175
STARLINK-31975          
1 59886U 24100B   26023.68506027  .00002158  00000+0  87911-4 0  9995
2 59886  43.0034  19.5891 0001287 266.0208  94.0497 15.27580989 94276
STARLINK-31976          
1 59887U 24100C   26024.04748804  .00000439  00000+0  25478-4 0  9998
2 59887  43.0047  21.4461 0001511 256.7900 103.2783 15.27586210 94286
STARLINK-31965          
1 59888U 24100D   26024.02355329  .00024212  00000+0  88617-3 0  9991
2 59888  43.0029  17.8314 0001605 243.7278 116.3408 15.27591974 94227
STARLINK-31969          
1 59889U 24100E   26024.26887304  .00001173  00000+0  52109-4 0  9990
2 59889  43.0028  12.7760 0001439 295.8716  64.1988 15.27600962 94407
STARLINK-31951          
1 59890U 24100F   26024.25555535 -.00001935  00000+0 -60778-4 0  9998
2 59890  42.9994  16.1350 0000827 333.3830  26.6979 15.27599408 94266
STARLINK-31949          
1 59891U 24100G   26024.00556205  .00003191  00000+0  12540-3 0  9994
2 59891  43.0018  17.6906 0000982 268.5441  91.5298 15.27588683 94222
STARLINK-31977          
1 59892U 24100H   26024.24751625 -.00003910  00000+0 -13259-3 0  9993
2 59892  43.0032   9.1513 0001588 286.3161  73.7516 15.27587253 94440
STARLINK-31963          
1 59893U 24100J   26024.01971324  .00000082  00000+0  12525-4 0  9990
2 59893  43.0035  17.8014 0001265 295.5347  64.5374 15.27561605 94326
STARLINK-31961          
1 59894U 24100K   26024.00397947 -.00000475  00000+0 -77542-5 0  9992
2 59894  43.0044  10.7617 0000848 278.0327  82.0429 15.27577026 94407
STARLINK-31964          
1 59895U 24100L   26024.24526322 -.00013250  00000+0 -47298-3 0  9998
2 59895  43.0015  16.0526 0001047 264.9269  95.1464 15.27569238 94315
STARLINK-31905          
1 59896U 24100M   26024.01760880 -.00001601  00000+0 -48637-4 0  9999
2 59896  43.0011  14.3303 0000932 282.9676  77.1072 15.27596105 94363
STARLINK-31928          
1 59897U 24100N   26024.03126992  .00005789  00000+0  21981-3 0  9993
2 59897  43.0029  17.8901 0000903 232.0877 127.9893 15.27568293 94229
STARLINK-31953          
1 59898U 24100P   26024.01376781  .00001030  00000+0  46933-4 0  9995
2 59898  42.9993  14.2974 0000541 180.0385 180.0467 15.27586986 94364
STARLINK-31942          
1 59899U 24100Q   26023.99786098 -.00000159  00000+0  37226-5 0  9996
2 59899  43.0010  17.6400 0000685 276.8577  83.2196 15.27592789 94310
STARLINK-31676          
1 59900U 24100R   26023.36199574  .00007108  00000+0  26777-3 0  9994
2 59900  43.0022  21.4648 0000997 285.6383  74.4359 15.27556587 94119
STARLINK-31908          
1 59901U 24100S   26024.00011682 -.00000585  00000+0 -11745-4 0  9994
2 59901  43.0035  10.7336 0000524 250.8361 109.2434 15.27583899 94392
STARLINK-31914          
1 59902U 24100T   26024.02741317  .00006536  00000+0  24692-3 0  9996
2 59902  43.0092  17.8598 0002134 287.8309  72.2310 15.27568345 94217
STARLINK-31850          
1 59903U 24100U   26024.25041957 -.00001117  00000+0 -31092-4 0  9990
2 59903  43.0040  16.0829 0001537 280.3749  79.6929 15.27566518 94308
STARLINK-31924          
1 59904U 24100V   26024.26324942  .00010393  00000+0  38651-3 0  9991
2 59904  43.0001  16.1908 0000232 248.1431 111.9396 15.27590833 94356
STARLINK-31898          
1 59905U 24100W   26024.01119990  .00000795  00000+0  38430-4 0  9991
2 59905  43.0024  14.2791 0001263 269.7800  90.2907 15.27573005 94354
STARLINK-31861          
1 59906U 24100X   26023.27570083  .00007786  00000+0  29204-3 0  9998
2 59906  43.0000  14.7257 0000692 175.0986 184.9873 15.27591883 94289
STARLINK-31920          
1 59907U 24100Y   26023.88406105 -.00000746  00000+0 -17567-4 0  9990
2 59907  43.0032 345.9965 0001508 265.0684  94.9995 15.27585718 94669
STARLINK-31872          
1 59922U 24106A   26024.25799429  .00011867  00000+0  43976-3 0  9995
2 59922  43.0007 223.7868 0001069 287.0326  73.0409 15.27602239 93768
STARLINK-31972          
1 59923U 24106B   26024.24000514  .00008168  00000+0  30603-3 0  9998
2 59923  42.9979 223.6520 0000621 292.0863  67.9923 15.27576394 93770
STARLINK-31958          
1 59924U 24106C   26023.91999042  .00002066  00000+0  84537-4 0  9992
2 59924  43.0002 210.8431 0001434 252.3345 107.7350 15.27598254 93840
STARLINK-31959          
1 59925U 24106D   26023.88270199 -.00001989  00000+0 -62763-4 0  9996
2 59925  43.0006 221.7298 0001032 265.9413  94.1320 15.27592271 93712
STARLINK-31957          
1 59926U 24106E   26024.26940976  .00004101  00000+0  15846-3 0  9993
2 59926  43.0019 223.0178 0000882 287.7831  72.2924 15.27583241 93788
STARLINK-31968          
1 59927U 24106F   26024.27711242  .00002899  00000+0  11481-3 0  9990
2 59927  43.0017 223.0753 0001501 266.2742  93.7938 15.27583777 93785
STARLINK-31970          
1 59928U 24106G   26024.23614541  .00009323  00000+0  34762-3 0  9997
2 59928  42.9975 223.6214 0001533 283.8249  76.2432 15.27604000 93774
STARLINK-31932          
1 59929U 24106H   26024.33337963  .00038296  00000+0  13932-2 0  9995
2 59929  43.0025 219.8198 0001246 257.5808 147.8936 15.27597995  5828
STARLINK-31956          
1 59930U 24106J   26023.83740979  .00013974  00000+0  51607-3 0  9994
2 59930  42.9973 225.7887 0001394 268.7367  91.3325 15.27599083 93663
STARLINK-31960          
1 59931U 24106K   26023.95276453  .00003658  00000+0  14240-3 0  9999
2 59931  43.0014 224.9393 0000908 272.4981  87.5767 15.27577127 93683
STARLINK-31432          
1 59932U 24106L   26024.24127667  .00014184  00000+0  52353-3 0  9998
2 59932  42.9969 223.6629 0002262 290.9985  69.0624 15.27606581 93711
STARLINK-31853          
1 59933U 24106M   26023.90664969  .00016747  00000+0  61620-3 0  9996
2 59933  42.9985 225.4477 0001809 270.5085  89.5559 15.27606019 93677
STARLINK-31971          
1 59934U 24106N   26024.26358742  .00005185  00000+0  19770-3 0  9999
2 59934  42.9996 220.2204 0001215 265.1808  94.8905 15.27597751 93648
STARLINK-31962          
1 59936U 24106Q   26023.86309846  .00016878  00000+0  62087-3 0  9997
2 59936  42.9996 225.9795 0001384 252.8443 107.2257 15.27611532 93667
STARLINK-31879          
1 59937U 24106R   26024.26568316 -.00002997  00000+0 -99428-4 0  9991
2 59937  43.0028 223.8423 0001945 262.5216  97.5414 15.27577997 93774
STARLINK-31876          
1 59938U 24106S   26023.83355223  .00011424  00000+0  42381-3 0  9993
2 59938  42.9987 225.7583 0001409 276.2856  83.7835 15.27596272 93672
STARLINK-31955          
1 59939U 24106T   26023.89122277  .00014325  00000+0  52843-3 0  9998
2 59939  42.9972 225.3338 0001403 274.5845  85.4847 15.27620155 93719
STARLINK-31946          
1 59940U 24106U   26024.26184625  .00003285  00000+0  12885-3 0  9992
2 59940  43.0018 223.8106 0001135 271.7724  88.2997 15.27579611 84354
STARLINK-31948          
1 59941U 24106V   26024.25587963  .00011360  00000+0  42123-3 0  9995
2 59941  43.0013 220.2047 0000965 295.3596  64.7155 15.27616366 93763
STARLINK-31900          
1 59942U 24106W   26024.25258444  .00024645  00000+0  94766-3 0  9995
2 59942  42.9961 222.8884 0001176 275.0366  85.0350 15.25950778 93732
STARLINK-31973          
1 59943U 24106X   26023.92078471  .00003785  00000+0  14708-3 0  9999
2 59943  42.9988 225.5569 0000898 271.2818  88.7931 15.27563269 93677
STARLINK-31966          
1 59944U 24106Y   26023.91693142  .00020200  00000+0  74093-3 0  9991
2 59944  42.9987 225.5221 0001623 270.0982  89.9683 15.27608653 93728
STARLINK-11145 [DTC]    
1 59945U 24107A   26023.94238056 -.00001802  00000+0 -10025-4 0  9990
2 59945  53.1581 112.1670 0000799  60.5024 299.6073 15.69704177 95116
STARLINK-11113 [DTC]    
1 59947U 24107C   26023.62882519  .00002740  00000+0  27453-4 0  9999
2 59947  53.1590 113.0240 0001408  95.9544 264.1635 15.69724565 95077
STARLINK-11123 [DTC]    
1 59948U 24107D   26023.48688767  .00002765  00000+0  27681-4 0  9993
2 59948  53.1583 114.2972 0001415  51.9548 308.1598 15.69707512 95103
STARLINK-11138 [DTC]    
1 59949U 24107E   26023.46724656  .00003176  00000+0  31040-4 0  9991
2 59949  53.1603 114.1670 0001370  92.9294 267.1881 15.69730768 95102
STARLINK-11130 [DTC]    
1 59950U 24107F   26023.67298830  .00004352  00000+0  40766-4 0  9998
2 59950  53.1576 113.3236 0001213  61.9922 298.1218 15.69707154 95079
STARLINK-11124 [DTC]    
1 59952U 24107H   26023.66317146  .00003330  00000+0  32348-4 0  9993
2 59952  53.1593 113.2566 0001220  80.2899 279.8256 15.69701928 95149
STARLINK-11143 [DTC]    
1 59953U 24107J   26024.33337963  .00378948  65740-4  11275-2 0  9999
2 59953  53.1418 106.5448 0008765   3.7323  31.6164 15.91889877  5792
STARLINK-11133 [DTC]    
1 59954U 24107K   26023.96680045 -.00003294  00000+0 -22336-4 0  9996
2 59954  53.1592 111.5908 0001278  80.4223 279.6939 15.69713964 95124
STARLINK-11144 [DTC]    
1 59955U 24107L   26023.51622064  .00000987  00000+0  13014-4 0  9992
2 59955  53.1593 113.7622 0001281  88.1371 271.9794 15.69690882 95112
STARLINK-11134 [DTC]    
1 59956U 24107M   26023.63864567 -.00000299  00000+0  23906-5 0  9991
2 59956  53.1585 113.0943 0001131 105.3966 254.7177 15.69704868 95001
STARLINK-11142 [DTC]    
1 59957U 24107N   26023.95208145 -.00000128  00000+0  38006-5 0  9999
2 59957  53.1580 111.4943 0000864  81.2496 278.8620 15.69714597 95135
STARLINK-31995          
1 59958U 24107P   26023.66466363  .00034978  00000+0  11852-2 0  9992
2 59958  53.1566 274.6203 0001114  92.0838 268.0290 15.30262632 91709
STARLINK-31989          
1 59959U 24107Q   26023.98490648 -.00000028  00000+0  11176-4 0  9992
2 59959  53.1573 273.0631 0001143  65.2439 294.8680 15.30193609 92952
